NORAD_CAT_ID,OBJECT_NAME,OBJECT_TYPE,EPOCH,MEAN_MOTION,ECCENTRICITY,INCLINATION,RA_OF_ASC_NODE,ARG_OF_PERICENTER,MEAN_ANOMALY,BSTAR,MEAN_MOTION_DOT,MEAN_MOTION_DDOT,TLE_LINE0,TLE_LINE1,TLE_LINE2,SEMIMAJOR_AXIS,PERIOD,APOGEE,PERIGEE,DECAYED
56770.0,STARLINK-6342,PAYLOAD,2023-12-26 22:44:40,14.98333636,0.0002177,69.9988,231.0002,264.6619,95.4292,4.4147e-06,-4e-07,0.0,0 STARLINK-6342,1 56770U 23078D   23360.94768847 -.00000040  00000-0  44147-5 0  9992,2 56770  69.9988 231.0002 0002177 264.6619  95.4292 14.98333636 31792,6950.182,96.107,573.56,570.534,0.0
56770.0,STARLINK-6342,PAYLOAD,2023-12-27 01:56:56,14.98334461,0.0002154,69.9993,230.6651,253.3702,106.722,9.5506e-06,2.1e-07,0.0,0 STARLINK-6342,1 56770U 23078D   23361.08120715  .00000021  00000-0  95506-5 0  9997,2 56770  69.9993 230.6651 0002154 253.3702 106.7220 14.98334461 31813,6950.179,96.107,573.541,570.547,0.0
56770.0,STARLINK-6342,PAYLOAD,2023-12-27 19:34:24,14.98336381,0.0002193,69.9989,228.8126,260.0905,100.0007,-8.9613e-05,-1.162e-05,0.0,0 STARLINK-6342,1 56770U 23078D   23361.81556537 -.00001162  00000-0 -89613-4 0  9993,2 56770  69.9989 228.8126 0002193 260.0905 100.0007 14.98336381 32181,6950.173,96.107,573.562,570.514,0.0
56770.0,STARLINK-6342,PAYLOAD,2023-12-27 21:10:32,14.98336118,0.0002153,69.9989,228.6437,257.6173,102.4745,-9.2463e-05,-1.196e-05,0.0,0 STARLINK-6342,1 56770U 23078D   23361.88232487 -.00001196  00000-0 -92463-4 0  9999,2 56770  69.9989 228.6437 0002153 257.6173 102.4745 14.98336118 31934,6950.174,96.107,573.535,570.543,0.0
56770.0,STARLINK-6342,PAYLOAD,2023-12-28 13:11:53,14.98328312,0.0002382,69.9985,226.9606,264.1387,95.9501,-5.1316e-07,-9.9e-07,0.0,0 STARLINK-6342,1 56770U 23078D   23362.54992576 -.00000099  00000-0 -51316-6 0  9990,2 56770  69.9985 226.9606 0002382 264.1387  95.9501 14.98328312 32038,6950.198,96.107,573.719,570.408,0.0
56770.0,STARLINK-6342,PAYLOAD,2023-12-28 19:36:25,14.98328826,0.0002361,69.9987,226.2875,257.4412,102.6483,2.5965e-05,2.17e-06,0.0,0 STARLINK-6342,1 56770U 23078D   23362.81696479  .00000217  00000-0  25965-4 0  9992,2 56770  69.9987 226.2875 0002361 257.4412 102.6483 14.98328826 32330,6950.197,96.107,573.702,570.421,0.0
56770.0,STARLINK-6342,PAYLOAD,2023-12-28 21:12:33,14.98328624,0.0002336,69.9987,226.1187,255.3019,104.7881,2.5104e-05,2.07e-06,0.0,0 STARLINK-6342,1 56770U 23078D   23362.88372458  .00000207  00000-0  25104-4 0  9991,2 56770  69.9987 226.1187 0002336 255.3019 104.7881 14.98328624 32080,6950.197,96.107,573.686,570.439,0.0
56770.0,STARLINK-6342,PAYLOAD,2023-12-29 00:24:49,14.98329018,0.0002198,69.9989,225.7821,256.9092,103.1822,3.7729e-05,3.57e-06,0.0,0 STARLINK-6342,1 56770U 23078D   23363.01724438  .00000357  00000-0  37729-4 0  9998,2 56770  69.9989 225.7821 0002198 256.9092 103.1822 14.98329018 32105,6950.196,96.107,573.589,570.533,0.0
56770.0,STARLINK-6342,PAYLOAD,2023-12-29 19:38:26,14.98328575,0.0002122,69.9995,223.7627,254.0036,106.0889,6.1977e-05,6.47e-06,0.0,0 STARLINK-6342,1 56770U 23078D   23363.81836414  .00000647  00000-0  61977-4 0  9998,2 56770  69.9995 223.7627 0002122 254.0036 106.0889 14.98328575 32481,6950.197,96.107,573.537,570.587,0.0
56770.0,STARLINK-6342,PAYLOAD,2023-12-29 21:14:34,14.98327807,0.000209,69.9994,223.5934,252.2518,107.8413,6.786e-05,7.17e-06,0.0,0 STARLINK-6342,1 56770U 23078D   23363.88512418  .00000717  00000-0  67860-4 0  9995,2 56770  69.9994 223.5934 0002090 252.2518 107.8413 14.98327807 32230,6950.2,96.107,573.517,570.612,0.0
56770.0,STARLINK-6342,PAYLOAD,2023-12-30 14:52:03,14.98330946,0.0002505,69.9992,221.7426,266.8039,93.2833,8.9352e-05,9.73e-06,0.0,0 STARLINK-6342,1 56770U 23078D   23364.61948140  .00000973  00000-0  89352-4 0  9996,2 56770  69.9992 221.7426 0002505 266.8039  93.2833 14.98330946 32348,6950.19,96.107,573.796,570.314,0.0
56770.0,STARLINK-6342,PAYLOAD,2023-12-30 19:40:27,14.98329002,0.0002418,69.9992,221.2372,259.9379,100.1507,0.00012819,1.437e-05,0.0,0 STARLINK-6342,1 56770U 23078D   23364.81976121  .00001437  00000-0  12819-3 0  9997,2 56770  69.9992 221.2372 0002418 259.9379 100.1507 14.98329002 32635,6950.196,96.107,573.742,570.38,0.0
56770.0,STARLINK-6342,PAYLOAD,2023-12-30 21:16:35,14.98330797,0.0002518,69.9992,221.0691,268.9561,91.1309,8.071e-05,8.7e-06,0.0,0 STARLINK-6342,1 56770U 23078D   23364.88652124  .00000870  00000-0  80710-4 0  9994,2 56770  69.9992 221.0691 0002518 268.9561  91.1309 14.98330797 32385,6950.19,96.107,573.805,570.305,0.0
56770.0,STARLINK-6342,PAYLOAD,2023-12-31 19:42:26,14.98346327,0.0002489,69.9987,218.711,272.3802,87.7072,0.00014362,1.622e-05,0.0,0 STARLINK-6342,1 56770U 23078D   23365.82114518  .00001622  00000-0  14362-3 0  9994,2 56770  69.9987 218.7110 0002489 272.3802  87.7072 14.98346327 32780,6950.142,96.106,573.737,570.278,0.0
56770.0,STARLINK-6342,PAYLOAD,2023-12-31 21:18:34,14.98347177,0.0002467,69.9987,218.5426,272.1532,87.9344,0.00015244,1.727e-05,0.0,0 STARLINK-6342,1 56770U 23078D   23365.88790351  .00001727  00000-0  15244-3 0  9991,2 56770  69.9987 218.5426 0002467 272.1532  87.9344 14.98347177 32533,6950.14,96.106,573.719,570.29,0.0
56770.0,STARLINK-6342,PAYLOAD,2024-01-01 14:56:04,14.98352645,0.0001475,70.0017,216.6918,242.6859,117.415,-0.00027449,-3.368e-05,0.0,0 STARLINK-6342,1 56770U 23078D   24001.62226881 -.00003368  00000-0 -27449-3 0  9998,2 56770  70.0017 216.6918 0001475 242.6859 117.4150 14.98352645 32649,6950.123,96.106,573.013,570.963,0.0
56770.0,STARLINK-6342,PAYLOAD,2024-01-01 19:44:28,14.98327016,0.0001801,70.0003,216.1873,248.2975,111.7993,-3.9619e-05,-5.65e-06,0.0,0 STARLINK-6342,1 56770U 23078D   24001.82255593 -.00000565  00000-0 -39619-4 0  9991,2 56770  70.0003 216.1873 0001801 248.2975 111.7993 14.98327016 32931,6950.202,96.107,573.319,570.815,0.0
56770.0,STARLINK-6342,PAYLOAD,2024-01-01 21:20:36,14.98334658,0.0001713,70.0005,216.0195,250.5961,109.5013,-0.00024752,-3.045e-05,0.0,0 STARLINK-6342,1 56770U 23078D   24001.88931683 -.00003045  00000-0 -24752-3 0  9995,2 56770  70.0005 216.0195 0001713 250.5961 109.5013 14.98334658 32682,6950.178,96.107,573.234,570.853,0.0
56770.0,STARLINK-6342,PAYLOAD,2024-01-02 00:32:53,14.9832137,0.0001868,70.0002,215.6828,259.6035,100.4914,-0.00010316,-1.323e-05,0.0,0 STARLINK-6342,1 56770U 23078D   24002.02284204 -.00001323  00000-0 -10316-3 0  9990,2 56770  70.0002 215.6828 0001868 259.6035 100.4914 14.98321370 32968,6950.22,96.108,573.383,570.786,0.0
56770.0,STARLINK-6342,PAYLOAD,2024-01-02 14:58:05,14.98335802,0.0002052,69.9998,214.1681,260.2411,99.8516,-0.00013375,-1.689e-05,0.0,0 STARLINK-6342,1 56770U 23078D   24002.62367323 -.00001689  00000-0 -13375-3 0  9993,2 56770  69.9998 214.1681 0002052 260.2411  99.8516 14.98335802 32797,6950.175,96.107,573.466,570.614,0.0
56770.0,STARLINK-6342,PAYLOAD,2024-01-02 18:10:21,14.98334801,0.0002078,69.9997,213.8315,259.889,100.2035,-0.00014055,-1.77e-05,0.0,0 STARLINK-6342,1 56770U 23078D   24002.75719353 -.00001770  00000-0 -14055-3 0  9998,2 56770  69.9997 213.8315 0002078 259.8890 100.2035 14.98334801 33072,6950.178,96.107,573.487,570.599,0.0
56770.0,STARLINK-6342,PAYLOAD,2024-01-02 21:22:37,14.983333,0.000243,69.9988,213.494,266.961,93.1271,-0.00015247,-1.912e-05,0.0,0 STARLINK-6342,1 56770U 23078D   24002.89071450 -.00001912  00000-0 -15247-3 0  9994,2 56770  69.9988 213.4940 0002430 266.9610  93.1271 14.98333300 32831,6950.183,96.107,573.737,570.359,0.0
56770.0,STARLINK-6342,PAYLOAD,2024-01-03 13:23:58,14.98321611,0.0002395,69.9987,211.8109,266.236,93.8525,3.6302e-05,3.4e-06,0.0,0 STARLINK-6342,1 56770U 23078D   24003.55831741  .00000340  00000-0  36302-4 0  9993,2 56770  69.9987 211.8109 0002395 266.2360  93.8525 14.98321611 32936,6950.219,96.108,573.748,570.419,0.0
56770.0,STARLINK-6342,PAYLOAD,2024-01-03 19:48:30,14.98322062,0.0002392,69.9987,211.1374,265.5176,94.571,3.8174e-05,3.62e-06,0.0,0 STARLINK-6342,1 56770U 23078D   24003.82535848  .00000362  00000-0  38174-4 0  9995,2 56770  69.9987 211.1374 0002392 265.5176  94.5710 14.98322062 33236,6950.217,96.108,573.745,570.42,0.0
56770.0,STARLINK-6342,PAYLOAD,2024-01-03 21:24:38,14.98323644,0.0002367,69.9987,210.9691,265.4808,94.608,5.6158e-05,5.77e-06,0.0,0 STARLINK-6342,1 56770U 23078D   24003.89211736  .00000577  00000-0  56158-4 0  9999,2 56770  69.9987 210.9691 0002367 265.4808  94.6080 14.98323644 32987,6950.213,96.107,573.723,570.432,0.0
56770.0,STARLINK-6342,PAYLOAD,2024-01-04 13:25:59,14.98326209,0.000243,69.9984,209.2847,270.8595,89.2286,6.018e-05,6.25e-06,0.0,0 STARLINK-6342,1 56770U 23078D   24004.55971830  .00000625  00000-0  60180-4 0  9995,2 56770  69.9984 209.2847 0002430 270.8595  89.2286 14.98326209 33082,6950.205,96.107,573.759,570.381,0.0
56770.0,STARLINK-6342,PAYLOAD,2024-01-04 19:50:31,14.98327161,0.0002415,69.9984,208.6116,269.1006,90.9876,6.5906e-05,6.93e-06,0.0,0 STARLINK-6342,1 56770U 23078D   24004.82675797  .00000693  00000-0  65906-4 0  9994,2 56770  69.9984 208.6116 0002415 269.1006  90.9876 14.98327161 33380,6950.202,96.107,573.745,570.388,0.0
56770.0,STARLINK-6342,PAYLOAD,2024-01-04 21:26:39,14.98327897,0.0002397,69.9985,208.4433,268.8018,91.2866,7.4132e-05,7.92e-06,0.0,0 STARLINK-6342,1 56770U 23078D   24004.89351738  .00000792  00000-0  74132-4 0  9998,2 56770  69.9985 208.4433 0002397 268.8018  91.2866 14.98327897 33131,6950.199,96.107,573.73,570.398,0.0
56770.0,STARLINK-6342,PAYLOAD,2024-01-05 15:04:08,14.983281,0.0002386,69.9985,206.5919,269.5552,90.5333,4.1075e-05,3.97e-06,0.0,0 STARLINK-6342,1 56770U 23078D   24005.62787928  .00000397  00000-0  41075-4 0  9995,2 56770  69.9985 206.5919 0002386 269.5552  90.5333 14.98328100 33249,6950.199,96.107,573.722,570.405,0.0
56770.0,STARLINK-6342,PAYLOAD,2024-01-05 21:28:40,14.98329267,0.0002363,69.9986,205.9189,269.153,90.9358,5.2949e-05,5.39e-06,0.0,0 STARLINK-6342,1 56770U 23078D   24005.89491846  .00000539  00000-0  52949-4 0  9995,2 56770  69.9986 205.9189 0002363 269.1530  90.9358 14.98329267 33289,6950.195,96.107,573.702,570.418,0.0
